[
    {
        "Altitude(m)": 622205.9023814473,
        "Argument of Periapsis(deg)": 0.0,
        "Eccentricity": 0.0,
        "Inclination(deg)": 60.0,
        "Latitude(deg)": -52.16253171328704,
        "Longitude(deg)": -62.29954049482368,
        "Mean Anomaly(deg)": -114.5455,
        "RAAN(deg)": 170.00000000000003,
        "Satellite Name": "Test1 763",
        "Satellite Number": 763,
        "Semi-Major Axis(m)": 6980739.136638005,
        "Time(s)": 0
    },
    {
        "Altitude(m)": 622344.8085563824,
        "Argument of Periapsis(deg)": 0.00010418945913296404,
        "Eccentricity": 0.0,
        "Inclination(deg)": 60.0,
        "Latitude(deg)": -52.52011059958824,
        "Longitude(deg)": -61.518325586124334,
        "Mean Anomaly(deg)": -113.92539385453817,
        "RAAN(deg)": 169.99957995086027,
        "Satellite Name": "Test1 763",
        "Satellite Number": 763,
        "Semi-Major Axis(m)": 6980739.136638005,
        "Time(s)": 10
    }
]